ARIRANG-3 (KOMPSAT-3)
1 38338U 12025B   23297.62525709  .00000910  00000+0  19013-3 0  9990
2 38338  98.2322 239.1614 0008989 258.8215 101.1975 14.62228630610087
ARIRANG-5 (KOMPSAT-5)
1 39227U 13042A   23297.59983914  .00003163  00000+0  23031-3 0  9998
2 39227  97.6188 121.8189 0001654 136.7816 223.3540 15.04489647558524